OBJECT_NAME,OBJECT_ID,EPOCH,MEAN_MOTION,ECCENTRICITY,INCLINATION,RA_OF_ASC_NODE,ARG_OF_PERICENTER,MEAN_ANOMALY,EPHEMERIS_TYPE,CLASSIFICATION_TYPE,NORAD_CAT_ID,ELEMENT_SET_NO,REV_AT_EPOCH,BSTAR,MEAN_MOTION_DOT,MEAN_MOTION_DDOT
SL-8 R/B,1985-006B,2026-07-21T12:25:23.733120,14.37847813,.00192261,74.0457,14.8851,257.0800,122.4062,0,U,15483,999,17326,.76850129E-4,.206E-5,0
SL-12 R/B(2),1985-042D,2026-07-21T08:37:01.303104,14.22011934,.00373649,71.1073,165.3189,277.1445,192.5230,0,U,15772,999,13339,.29717932E-4,.18E-6,0
SL-14 R/B,1985-069B,2026-07-21T13:34:59.301696,14.86537887,.00202953,82.5253,259.0345,107.6434,252.7002,0,U,15945,999,19272,.26659599E-4,.262E-5,0
SL-16 R/B,1985-097B,2026-07-21T09:08:47.342400,14.16615883,.00059046,71.0006,219.0889,38.9742,62.4648,0,U,16182,999,10616,.11967614E-3,.191E-5,0
SL-14 R/B,1986-006B,2026-07-21T07:17:27.446496,14.86971378,.0075992,82.5286,134.0101,188.4658,171.5284,0,U,16496,999,16906,.31627611E-4,.325E-5,0
COSMOS 1743,1986-034A,2026-07-21T12:46:16.790592,15.70122033,.00055644,82.5269,292.1297,157.1801,202.9709,0,U,16719,999,20117,.45211126E-3,.54843E-3,0
SL-14 R/B,1986-046B,2026-07-21T13:39:37.787040,14.85693840,.00240526,82.4841,313.6890,142.6040,217.6856,0,U,16792,999,14628,.34183447E-4,.323E-5,0
SL-14 R/B,1986-055B,2026-07-21T10:04:22.373760,14.85743081,.00174369,82.5209,0.9434,247.8860,142.1133,0,U,16882,999,13922,.30830138E-4,.292E-5,0
AJISAI (EGS),1986-061A,2026-07-21T13:55:56.201376,12.44516675,.00110769,50.0104,41.6366,268.1861,131.6506,0,U,16908,999,48467,-.57680717E-4,-.106E-5,0
SL-14 R/B,1987-024B,2026-07-21T14:54:35.689824,14.86235098,.00184158,82.5304,326.8850,172.3893,187.7607,0,U,17567,999,10802,.36659205E-4,.348E-5,0
COSMOS 1833,1987-027A,2026-07-21T00:23:28.415904,14.13067702,.00246703,70.9214,45.7649,359.4204,0.6884,0,U,17589,999,2915,.2194588E-4,-.7E-7,0
SL-16 R/B,1987-027B,2026-07-21T04:00:34.969824,14.17175870,.00072395,71.0041,355.2208,275.6600,84.3698,0,U,17590,999,3425,.97501738E-4,.149E-5,0
SL-14 R/B,1987-038B,2026-07-21T08:21:40.954752,14.85464413,.00208557,82.5019,170.8947,83.3951,276.9638,0,U,17912,999,9907,.34459481E-4,.323E-5,0
COSMOS 1844,1987-041A,2026-07-21T11:22:28.008192,14.14581317,.0030899,70.9000,111.9871,186.2310,173.8432,0,U,17973,999,2250,-.13961276E-4,-.75E-6,0
SL-14 R/B,1987-055B,2026-07-21T12:05:18.763296,14.85729513,.00191125,82.4968,222.8772,292.7085,67.2111,0,U,18153,999,8980,.25410831E-4,.245E-5,0
COSMOS 1867,1987-060A,2026-07-21T08:45:39.600288,14.31518930,.00172977,65.0114,292.3416,281.9487,77.9658,0,U,18187,999,3907,.10370706E-4,-.73E-6,0
SL-14 R/B,1988-001B,2026-07-21T08:57:45.716256,14.85629239,.00186847,82.5116,69.6085,151.8853,208.3376,0,U,18749,999,6187,.26869127E-4,.258E-5,0
COSMOS 1933,1988-020A,2026-07-21T05:31:59.412000,15.18915574,.00059673,82.5139,118.7205,92.0854,268.1063,0,U,18958,999,7049,.11906577E-3,.2517E-4,0
SL-3 R/B,1988-032B,2026-07-21T14:03:11.196864,15.21064019,.00269868,97.5281,185.6009,124.5202,235.8587,0,U,19046,999,7245,.15701819E-3,.3449E-4,0
SL-16 R/B,1988-039B,2026-07-21T13:50:36.422880,14.19632159,.00202819,71.0147,145.4416,138.9859,221.2796,0,U,19120,999,97738,.34762625E-4,.26E-6,0
COSMOS 1953,1988-050A,2026-07-21T09:58:13.870848,15.30392343,.00109423,82.5071,23.5019,19.4375,340.7281,0,U,19210,999,5822,.19470863E-3,.5764E-4,0
SL-8 R/B,1988-053B,2026-07-21T08:33:45.949248,14.38980082,.00199572,74.0451,226.0704,9.7738,89.2803,0,U,19257,999,99582,.50433498E-4,.13E-5,0
COSMOS 1975,1988-093A,2026-07-21T08:52:23.331936,15.29716836,.00122646,82.5205,343.3059,63.1809,297.0684,0,U,19573,999,3983,.20602854E-3,.5976E-4,0
SL-14 R/B,1988-093B,2026-07-21T11:25:07.603680,14.85762506,.00195232,82.5309,276.4561,318.6573,51.7095,0,U,19574,999,2088,.25289755E-4,.244E-5,0
SL-16 R/B,1988-102B,2026-07-21T11:23:41.351424,14.16167916,.00139354,70.9971,229.9935,175.8029,184.3214,0,U,19650,999,94583,.13222913E-3,.214E-5,0
INTERCOSMOS 24,1989-080A,2026-07-21T11:36:49.892256,12.59693771,.11868847,82.6058,17.3197,342.3463,13.9474,0,U,20261,999,68364,.56507598E-4,.201E-5,0
SL-14 R/B,1989-080C,2026-07-21T03:54:49.190976,12.50579251,.12289386,82.5927,87.4768,239.6375,107.7654,0,U,20262,999,67683,.20186334E-4,.72E-6,0
DELTA 1 R/B,1989-089B,2026-07-21T05:20:31.539264,14.50750162,.00704932,97.0639,28.3345,61.3333,299.4929,0,U,20323,999,91509,.56283979E-4,.194E-5,0
ARIANE 40 R/B,1990-005H,2026-07-21T03:55:07.789440,14.39942590,.00106667,98.2939,258.7195,156.9146,203.2524,0,U,20443,999,91201,.54060572E-4,.128E-5,0
DELTA 2 R/B(1),1990-008B,2026-07-21T11:46:11.881920,15.74728994,.00559566,35.5999,5.1810,76.1364,284.5595,0,U,20453,999,94710,.7511772E-3,.128539E-2,0
