SL-8 R/B                
1 15483U 85006B   26202.51763580  .00000206  00000+0  76850-4 0  9994
2 15483  74.0457  14.8851 0019226 257.0800 122.4062 14.37847813173261
SL-12 R/B(2)            
1 15772U 85042D   26202.35904286  .00000018  00000+0  29718-4 0  9999
2 15772  71.1073 165.3189 0037364 277.1445 192.5230 14.22011934133397
SL-14 R/B               
1 15945U 85069B   26202.56596414  .00000262  00000+0  26660-4 0  9997
2 15945  82.5253 259.0345 0020295 107.6434 252.7002 14.86537887192728
SL-16 R/B               
1 16182U 85097B   26202.38110350  .00000191  00000+0  11968-3 0  9998
2 16182  71.0006 219.0889 0005904  38.9742  62.4648 14.16615883106169
SL-14 R/B               
1 16496U 86006B   26202.30378989  .00000325  00000+0  31628-4 0  9998
2 16496  82.5286 134.0101 0075992 188.4658 171.5284 14.86971378169065
COSMOS 1743             
1 16719U 86034A   26202.53213878  .00054843  00000+0  45211-3 0  9993
2 16719  82.5269 292.1297 0005564 157.1801 202.9709 15.70122033201177
SL-14 R/B               
1 16792U 86046B   26202.56918735  .00000323  00000+0  34183-4 0  9995
2 16792  82.4841 313.6890 0024052 142.6040 217.6856 14.85693840146288
SL-14 R/B               
1 16882U 86055B   26202.41970340  .00000292  00000+0  30830-4 0  9999
2 16882  82.5209   0.9434 0017436 247.8860 142.1133 14.85743081139222
AJISAI (EGS)            
1 16908U 86061A   26202.58051159 -.00000106  00000+0 -57681-4 0  9990
2 16908  50.0104  41.6366 0011076 268.1861 131.6506 12.44516675484671
SL-14 R/B               
1 17567U 87024B   26202.62124641  .00000348  00000+0  36659-4 0  9992
2 17567  82.5304 326.8850 0018415 172.3893 187.7607 14.86235098108027
COSMOS 1833             
1 17589U 87027A   26202.01630111 -.00000007  00000+0  21946-4 0  9992
2 17589  70.9214  45.7649 0024670 359.4204   0.6884 14.13067702 29150
SL-16 R/B               
1 17590U 87027B   26202.16707141  .00000149  00000+0  97502-4 0  9995
2 17590  71.0041 355.2208 0007239 275.6600  84.3698 14.17175870 34252
SL-14 R/B               
1 17912U 87038B   26202.34839068  .00000323  00000+0  34459-4 0  9995
2 17912  82.5019 170.8947 0020855  83.3951 276.9638 14.85464413 99078
COSMOS 1844             
1 17973U 87041A   26202.47393528 -.00000075  00000+0 -13961-4 0  9997
2 17973  70.9000 111.9871 0030899 186.2310 173.8432 14.14581317 22505
SL-14 R/B               
1 18153U 87055B   26202.50368939  .00000245  00000+0  25411-4 0  9995
2 18153  82.4968 222.8772 0019112 292.7085  67.2111 14.85729513 89802
COSMOS 1867             
1 18187U 87060A   26202.36504167 -.00000073  00000+0  10371-4 0  9996
2 18187  65.0114 292.3416 0017297 281.9487  77.9658 14.31518930 39072
SL-14 R/B               
1 18749U 88001B   26202.37344579  .00000258  00000+0  26869-4 0  9999
2 18749  82.5116  69.6085 0018684 151.8853 208.3376 14.85629239 61876
COSMOS 1933             
1 18958U 88020A   26202.23054875  .00002517  00000+0  11907-3 0  9990
2 18958  82.5139 118.7205 0005967  92.0854 268.1063 15.18915574 70492
SL-3 R/B                
1 19046U 88032B   26202.58554626  .00003449  00000+0  15702-3 0  9991
2 19046  97.5281 185.6009 0026986 124.5202 235.8587 15.21064019 72455
SL-16 R/B               
1 19120U 88039B   26202.57681045  .00000026  00000+0  34763-4 0  9993
2 19120  71.0147 145.4416 0020281 138.9859 221.2796 14.19632159977380
COSMOS 1953             
1 19210U 88050A   26202.41543832  .00005764  00000+0  19471-3 0  9992
2 19210  82.5071  23.5019 0010942  19.4375 340.7281 15.30392343 58228
SL-8 R/B                
1 19257U 88053B   26202.35678182  .00000130  00000+0  50433-4 0  9992
2 19257  74.0451 226.0704 0019957   9.7738  89.2803 14.38980082995829
COSMOS 1975             
1 19573U 88093A   26202.36971449  .00005976  00000+0  20603-3 0  9998
2 19573  82.5205 343.3059 0012264  63.1809 297.0684 15.29716836 39835
SL-14 R/B               
1 19574U 88093B   26202.47578245  .00000244  00000+0  25290-4 0  9999
2 19574  82.5309 276.4561 0019523 318.6573  51.7095 14.85762506 20888
SL-16 R/B               
1 19650U 88102B   26202.47478416  .00000214  00000+0  13223-3 0  9993
2 19650  70.9971 229.9935 0013935 175.8029 184.3214 14.16167916945832
INTERCOSMOS 24          
1 20261U 89080A   26202.48391079  .00000201  00000+0  56508-4 0  9999
2 20261  82.6058  17.3197 1186884 342.3463  13.9474 12.59693771683646
SL-14 R/B               
1 20262U 89080C   26202.16306934  .00000072  00000+0  20186-4 0  9990
2 20262  82.5927  87.4768 1228938 239.6375 107.7654 12.50579251676832
DELTA 1 R/B             
1 20323U 89089B   26202.22258726  .00000194  00000+0  56284-4 0  9992
2 20323  97.0639  28.3345 0070493  61.3333 299.4929 14.50750162915092
ARIANE 40 R/B           
1 20443U 90005H   26202.16328460  .00000128  00000+0  54061-4 0  9999
2 20443  98.2939 258.7195 0010666 156.9146 203.2524 14.39942590912010
DELTA 2 R/B(1)          
1 20453U 90008B   26202.49041530  .00128539  00000+0  75118-3 0  9991
2 20453  35.5999   5.1810 0055956  76.1364 284.5595 15.74728994947103
